ONEWEB-0338             
1 49204U 21083U   24077.91367275  .00000080  00000+0  16495-3 0  9998
2 49204  87.9130  77.8988 0001563  80.0190 280.1120 13.20773487128400
ONEWEB-0339             
1 49205U 21083V   24078.16027102 -.00000236  00000+0 -68014-3 0  9998
2 49205  87.8933 123.6798 0001872 101.3455 258.7885 13.13469247124418
ONEWEB-0340             
1 49206U 21083W   24077.69520233 -.00000021  00000+0 -85890-4 0  9993
2 49206  87.9193 138.9672 0002138 103.2821 256.8550 13.18684164121701
ONEWEB-0341             
1 49207U 21083X   24077.70312746  .00000043  00000+0  75415-4 0  9998
2 49207  87.9193 138.9809 0001679 122.2171 237.9124 13.18685840121723
ONEWEB-0342             
1 49208U 21083Y   24077.91998930  .00000532  00000+0  12761-2 0  9993
2 49208  87.9121  77.9160 0001805  85.2783 274.8556 13.20765952128378
ONEWEB-0343             
1 49209U 21083Z   24077.69837244 -.00000044  00000+0 -14309-3 0  9990
2 49209  87.9186 138.9945 0001597 117.4975 242.6319 13.18685429121772
ONEWEB-0344             
1 49210U 21083AA  24077.66988116  .00000076  00000+0  17272-3 0  9999
2 49210  87.8938 123.7918 0002161 100.8845 259.2528 13.13468691123054
ONEWEB-0345             
1 49211U 21083AB  24077.68733720 -.00000307  00000+0 -87532-3 0  9996
2 49211  87.8934 123.7659 0002174 112.7260 247.4099 13.13469020123060
